STARLINK-4310           
1 53074U 22077AH  26068.97544262  .00001085  00000+0  79435-4 0  9993
2 53074  97.6021 251.4717 0001773 113.1748 246.9665 15.05639905201022
STARLING 4              
1 57386U 23100A   26066.02836485 -.00000009  00000+0  55676-5 0  9994
2 57386  99.5115  59.9711 0007803  83.0949 277.1159 15.06148396144525
